NORAD_CAT_ID,OBJECT_NAME,OBJECT_TYPE,EPOCH,MEAN_MOTION,ECCENTRICITY,INCLINATION,RA_OF_ASC_NODE,ARG_OF_PERICENTER,MEAN_ANOMALY,BSTAR,MEAN_MOTION_DOT,MEAN_MOTION_DDOT,TLE_LINE0,TLE_LINE1,TLE_LINE2,SEMIMAJOR_AXIS,PERIOD,APOGEE,PERIGEE,DECAYED
56808.0,STARLINK-6042,PAYLOAD,2024-07-04 19:48:24,15.19261704,0.0003197,69.9992,34.547,267.9308,92.1496,1.1761e-05,1.34e-06,0.0,0 STARLINK-6042,1 56808U 23078AT  24186.82528588  .00000134  00000-0  11761-4 0  9992,2 56808  69.9992  34.5470 0003197 267.9308  92.1496 15.19261704 62501,6886.208,94.783,510.274,505.871,0.0
56808.0,STARLINK-6042,PAYLOAD,2024-07-04 21:23:13,15.19262408,0.0003197,69.9991,34.3755,268.1705,91.9099,1.4337e-05,1.89e-06,0.0,0 STARLINK-6042,1 56808U 23078AT  24186.89112588  .00000189  00000-0  14337-4 0  9990,2 56808  69.9991  34.3755 0003197 268.1705  91.9099 15.19262408 62258,6886.206,94.783,510.272,505.869,0.0
56808.0,STARLINK-6042,PAYLOAD,2024-07-05 14:46:08,15.1925937,0.0003137,69.9992,32.4892,268.115,91.9661,-9.0282e-06,-3.05e-06,0.0,0 STARLINK-6042,1 56808U 23078AT  24187.61537466 -.00000305  00000-0 -90282-5 0  9993,2 56808  69.9992  32.4892 0003137 268.1150  91.9661 15.19259370 62369,6886.215,94.783,510.24,505.919,0.0
56808.0,STARLINK-6042,PAYLOAD,2024-07-05 21:05:22,15.19260284,0.0003102,69.9993,31.8033,267.5787,92.5027,-4.3217e-06,-2.06e-06,0.0,0 STARLINK-6042,1 56808U 23078AT  24187.87873623 -.00000206  00000-0 -43217-5 0  9995,2 56808  69.9993  31.8033 0003102 267.5787  92.5027 15.19260284 62405,6886.212,94.783,510.213,505.941,0.0
56808.0,STARLINK-6042,PAYLOAD,2024-07-06 00:15:00,15.19260789,0.0003101,69.9993,31.4603,267.7274,92.3541,-1.7146e-06,-1.51e-06,0.0,0 STARLINK-6042,1 56808U 23078AT  24188.01041694 -.00000151  00000-0 -17146-5 0  9998,2 56808  69.9993  31.4603 0003101 267.7274  92.3541 15.19260789 62685,6886.21,94.783,510.211,505.94,0.0
56808.0,STARLINK-6042,PAYLOAD,2024-07-06 14:28:17,15.1925984,0.0003035,69.9994,29.9171,268.0206,92.0616,-1.8338e-05,-5.02e-06,0.0,0 STARLINK-6042,1 56808U 23078AT  24188.60298359 -.00000502  00000-0 -18338-4 0  9998,2 56808  69.9994  29.9171 0003035 268.0206  92.0616 15.19259840 62511,6886.213,94.783,510.168,505.988,0.0
56808.0,STARLINK-6042,PAYLOAD,2024-07-06 22:22:20,15.19259797,0.0003032,69.9994,29.0597,268.055,92.0273,-2.1294e-05,-5.64e-06,0.0,0 STARLINK-6042,1 56808U 23078AT  24188.93218681 -.00000564  00000-0 -21294-4 0  9997,2 56808  69.9994  29.0597 0003032 268.0550  92.0273 15.19259797 62568,6886.213,94.783,510.166,505.991,0.0
56808.0,STARLINK-6042,PAYLOAD,2024-07-07 06:16:24,15.19258771,0.0003017,69.9995,28.2022,269.7454,90.337,-1.352e-05,-4e-06,0.0,0 STARLINK-6042,1 56808U 23078AT  24189.26139024 -.00000400  00000-0 -13520-4 0  9999,2 56808  69.9995  28.2022 0003017 269.7454  90.3370 15.19258771 62871,6886.217,94.783,510.159,506.004,0.0
56808.0,STARLINK-6042,PAYLOAD,2024-07-07 14:10:27,15.19258467,0.0003041,69.9993,27.3445,271.3738,88.7083,-1.7954e-06,-1.52e-06,0.0,0 STARLINK-6042,1 56808U 23078AT  24189.59059306 -.00000152  00000-0 -17954-5 0  9999,2 56808  69.9993  27.3445 0003041 271.3738  88.7083 15.19258467 62660,6886.217,94.783,510.177,505.988,0.0
56808.0,STARLINK-6042,PAYLOAD,2024-07-07 22:04:29,15.19263443,0.0002938,69.9995,26.4876,269.4967,90.5866,2.7595e-05,4.69e-06,0.0,0 STARLINK-6042,1 56808U 23078AT  24189.91979154  .00000469  00000-0  27595-4 0  9997,2 56808  69.9995  26.4876 0002938 269.4967  90.5866 15.19263443 62970,6886.202,94.783,510.091,506.044,0.0
56808.0,STARLINK-6042,PAYLOAD,2024-07-08 13:52:36,15.19262624,0.0002669,69.9992,24.7725,269.2858,90.8006,1.6937e-05,2.44e-06,0.0,0 STARLINK-6042,1 56808U 23078AT  24190.57819700  .00000244  00000-0  16937-4 0  9990,2 56808  69.9992  24.7725 0002669 269.2858  90.8006 15.19262624 62811,6886.205,94.783,509.908,506.232,0.0
56808.0,STARLINK-6042,PAYLOAD,2024-07-08 20:11:51,15.19257874,0.0003011,69.9992,24.0866,269.7978,90.2847,-9.2118e-06,-3.09e-06,0.0,0 STARLINK-6042,1 56808U 23078AT  24190.84156326 -.00000309  00000-0 -92118-5 0  9998,2 56808  69.9992  24.0866 0003011 269.7978  90.2847 15.19257874 63112,6886.219,94.783,510.158,506.011,0.0
56808.0,STARLINK-6042,PAYLOAD,2024-07-08 21:46:39,15.19257933,0.0003058,69.9991,23.9152,270.9351,89.1468,-1.2805e-05,-3.85e-06,0.0,0 STARLINK-6042,1 56808U 23078AT  24190.90740411 -.00000385  00000-0 -12805-4 0  9997,2 56808  69.9991  23.9152 0003058 270.9351  89.1468 15.19257933 62860,6886.219,94.783,510.19,505.978,0.0
56808.0,STARLINK-6042,PAYLOAD,2024-07-09 13:34:46,15.19257056,0.0003083,69.9989,22.2003,273.0677,87.0139,-6.3622e-06,-2.49e-06,0.0,0 STARLINK-6042,1 56808U 23078AT  24191.56581081 -.00000249  00000-0 -63622-5 0  9999,2 56808  69.9989  22.2003 0003083 273.0677  87.0139 15.19257056 62966,6886.222,94.783,510.21,505.964,0.0
56808.0,STARLINK-6042,PAYLOAD,2024-07-09 21:28:48,15.19261731,0.0002903,69.9991,21.343,269.2128,90.871,1.0903e-05,1.16e-06,0.0,0 STARLINK-6042,1 56808U 23078AT  24191.89501025  .00000116  00000-0  10903-4 0  9999,2 56808  69.9991  21.3430 0002903 269.2128  90.8710 15.19261731 63010,6886.208,94.783,510.072,506.073,0.0
56808.0,STARLINK-6042,PAYLOAD,2024-07-09 23:03:37,15.19261609,0.0002726,69.9992,21.1715,261.706,98.3801,1.1125e-05,1.21e-06,0.0,0 STARLINK-6042,1 56808U 23078AT  24191.96085073  .00000121  00000-0  11125-4 0  9990,2 56808  69.9992  21.1715 0002726 261.7060  98.3801 15.19261609 63287,6886.208,94.783,509.95,506.196,0.0
56808.0,STARLINK-6042,PAYLOAD,2024-07-10 11:42:06,15.19258546,0.0002861,69.9991,19.7998,272.9423,87.1419,-1.5758e-05,-4.47e-06,0.0,0 STARLINK-6042,1 56808U 23078AT  24192.48757810 -.00000447  00000-0 -15758-4 0  9992,2 56808  69.9991  19.7998 0002861 272.9423  87.1419 15.19258546 63107,6886.217,94.783,510.052,506.112,0.0
56808.0,STARLINK-6042,PAYLOAD,2024-07-10 22:45:47,15.19257785,0.0002791,69.9993,18.5994,274.9518,85.1333,1.96e-05,3e-06,0.0,0 STARLINK-6042,1 56808U 23078AT  24192.94846200  .00000300  00000-0  19600-4 0  9991,2 56808  69.9993  18.5994 0002791 274.9518  85.1333 15.19257785 63175,6886.219,94.783,510.006,506.163,0.0
56808.0,STARLINK-6042,PAYLOAD,2024-07-11 14:33:53,15.19262582,0.0002748,69.9994,16.8848,275.4909,84.5948,1.1293e-05,1.24e-06,0.0,0 STARLINK-6042,1 56808U 23078AT  24193.60686574  .00000124  00000-0  11293-4 0  9995,2 56808  69.9994  16.8848 0002748 275.4909  84.5948 15.19262582 63274,6886.205,94.783,509.962,506.178,0.0
56808.0,STARLINK-6042,PAYLOAD,2024-07-12 12:41:14,15.19253303,0.0002121,70.0019,14.4838,274.8148,85.278,-3.5367e-05,-8.61e-06,0.0,0 STARLINK-6042,1 56808U 23078AT  24194.52864550 -.00000861  00000-0 -35367-4 0  9997,2 56808  70.0019  14.4838 0002121 274.8148  85.2780 15.19253303 63678,6886.233,94.783,509.559,506.637,0.0
56808.0,STARLINK-6042,PAYLOAD,2024-07-12 14:16:04,15.19245977,0.0003008,69.9988,14.3129,274.4367,85.6459,-7.0418e-05,-1.602e-05,0.0,0 STARLINK-6042,1 56808U 23078AT  24194.59449125 -.00001602  00000-0 -70418-4 0  9991,2 56808  69.9988  14.3129 0003008 274.4367  85.6459 15.19245977 63424,6886.255,94.784,510.192,506.049,0.0
56808.0,STARLINK-6042,PAYLOAD,2024-07-12 20:35:18,15.19243293,0.0002593,69.9999,13.6273,271.1998,88.8875,-8.2909e-05,-1.865e-05,0.0,0 STARLINK-6042,1 56808U 23078AT  24194.85785860 -.00001865  00000-0 -82909-4 0  9998,2 56808  69.9999  13.6273 0002593 271.1998  88.8875 15.19243293 63729,6886.263,94.784,509.914,506.343,0.0
56808.0,STARLINK-6042,PAYLOAD,2024-07-12 22:10:07,15.19242834,0.0002613,69.9998,13.4557,272.319,87.7681,-8.5143e-05,-1.912e-05,0.0,0 STARLINK-6042,1 56808U 23078AT  24194.92370036 -.00001912  00000-0 -85143-4 0  9997,2 56808  69.9998  13.4557 0002613 272.3190  87.7681 15.19242834 63476,6886.265,94.784,509.929,506.33,0.0
56808.0,STARLINK-6042,PAYLOAD,2024-07-13 12:23:25,15.19250383,0.0002983,69.9987,11.9114,273.9394,86.1435,-6.8537e-05,-1.562e-05,0.0,0 STARLINK-6042,1 56808U 23078AT  24195.51626489 -.00001562  00000-0 -68537-4 0  9998,2 56808  69.9987  11.9114 0002983 273.9394  86.1435 15.19250383 63826,6886.242,94.784,510.161,506.053,0.0
56808.0,STARLINK-6042,PAYLOAD,2024-07-13 13:58:13,15.19251871,0.0002723,69.9995,11.7408,272.9829,87.1029,-4.9564e-05,-1.161e-05,0.0,0 STARLINK-6042,1 56808U 23078AT  24195.58210445 -.00001161  00000-0 -49564-4 0  9990,2 56808  69.9995  11.7408 0002723 272.9829  87.1029 15.19251871 63578,6886.237,94.783,509.977,506.227,0.0
56808.0,STARLINK-6042,PAYLOAD,2024-07-13 21:52:17,15.19252685,0.0002712,69.9996,10.8835,272.8951,87.1909,-3.5788e-05,-8.7e-06,0.0,0 STARLINK-6042,1 56808U 23078AT  24195.91130863 -.00000870  00000-0 -35788-4 0  9991,2 56808  69.9996  10.8835 0002712 272.8951  87.1909 15.19252685 63623,6886.235,94.783,509.967,506.232,0.0
56808.0,STARLINK-6042,PAYLOAD,2024-07-14 12:05:34,15.19253912,0.0003,69.9989,9.339,276.7706,83.3123,0.00011283,2.271e-05,0.0,0 STARLINK-6042,1 56808U 23078AT  24196.50386884  .00002271  00000-0  11283-3 0  9991,2 56808  69.9989   9.3390 0003000 276.7706  83.3123 15.19253912 63974,6886.231,94.783,510.162,506.03,0.0
56808.0,STARLINK-6042,PAYLOAD,2024-07-14 13:40:22,15.19254339,0.0003,69.9989,9.1675,276.7229,83.3599,0.0001135,2.285e-05,0.0,0 STARLINK-6042,1 56808U 23078AT  24196.56970949  .00002285  00000-0  11350-3 0  9998,2 56808  69.9989   9.1675 0003000 276.7229  83.3599 15.19254339 63722,6886.23,94.783,510.161,506.029,0.0
56808.0,STARLINK-6042,PAYLOAD,2024-07-14 21:34:25,15.19260721,0.0002931,69.9991,8.3106,275.4679,84.6157,0.0001439,2.928e-05,0.0,0 STARLINK-6042,1 56808U 23078AT  24196.89890802  .00002928  00000-0  14390-3 0  9994,2 56808  69.9991   8.3106 0002931 275.4679  84.6157 15.19260721 63773,6886.211,94.783,510.094,506.057,0.0
56808.0,STARLINK-6042,PAYLOAD,2024-07-15 14:57:19,15.19271039,0.0003021,69.999,6.4239,277.1489,82.9337,0.00011284,2.272e-05,0.0,0 STARLINK-6042,1 56808U 23078AT  24197.62314766  .00002272  00000-0  11284-3 0  9997,2 56808  69.9990   6.4239 0003021 277.1489  82.9337 15.19271039 63884,6886.179,94.782,510.125,505.964,0.0
